NORAD_CAT_ID,OBJECT_NAME,OBJECT_TYPE,EPOCH,MEAN_MOTION,ECCENTRICITY,INCLINATION,RA_OF_ASC_NODE,ARG_OF_PERICENTER,MEAN_ANOMALY,BSTAR,MEAN_MOTION_DOT,MEAN_MOTION_DDOT,TLE_LINE0,TLE_LINE1,TLE_LINE2,SEMIMAJOR_AXIS,PERIOD,APOGEE,PERIGEE,DECAYED
52866.0,STARLINK-4272,PAYLOAD,2022-10-01 14:00:01,15.08871738,0.0002002,53.2163,258.4965,44.3023,159.7539,-0.0024663,-0.0003936,0.0,0 STARLINK-4272,1 52866U 22062AN  22274.58334491 -.00039360  00000-0 -24663-2 0  9999,2 52866  53.2163 258.4965 0002002  44.3023 159.7539 15.08871738  1309,6917.783,95.436,541.033,538.263,0.0
52866.0,STARLINK-4272,PAYLOAD,2022-10-01 22:00:00,15.0884451,0.0001833,53.2164,256.999,48.4561,167.2206,-0.00090093,-0.000146,0.0,0 STARLINK-4272,1 52866U 22062AN  22274.91667824 -.00014600  00000-0 -90093-3 0  9996,2 52866  53.2164 256.9990 0001833  48.4561 167.2206 15.08844510  1307,6917.8669999999975,95.437,541.0,538.464,0.0
52866.0,STARLINK-4272,PAYLOAD,2022-10-02 14:00:01,15.08843116,0.0001924,53.2162,254.0075,41.49800000000001,197.3419,-0.0014612,-0.0002346999999999,0.0,0 STARLINK-4272,1 52866U 22062AN  22275.58334491 -.00023470  00000-0 -14612-2 0  9998,2 52866  53.2162 254.0075 0001924  41.4980 197.3419 15.08843116 17091,6917.871,95.437,541.067,538.405,0.0
52866.0,STARLINK-4272,PAYLOAD,2022-10-02 22:00:00,15.08832554,0.0001844,53.2164,252.51,47.8234,202.6087,0.0026745,0.00042525,0.0,0 STARLINK-4272,1 52866U 22062AN  22275.91667824  .00042525  00000-0  26745-2 0  9994,2 52866  53.2164 252.5100 0001844  47.8234 202.6087 15.08832554  1300,6917.903,95.438,541.044,538.492,0.0
52866.0,STARLINK-4272,PAYLOAD,2022-10-03 06:00:00,15.08859707,0.0002034,53.2163,251.0155,42.8294,219.2064,-0.0011385,-0.00018372,0.0,0 STARLINK-4272,1 52866U 22062AN  22276.25001157 -.00018372  00000-0 -11385-2 0  9992,2 52866  53.2163 251.0155 0002034  42.8294 219.2064 15.08859707 17198,6917.82,95.436,541.092,538.278,0.0
52866.0,STARLINK-4272,PAYLOAD,2022-10-03 14:00:01,15.088578699999998,0.0001919,53.2164,249.5184,41.0811,232.5653,-0.0013353,-0.00021487,0.0,0 STARLINK-4272,1 52866U 22062AN  22276.58334491 -.00021487  00000-0 -13353-2 0  9996,2 52866  53.2164 249.5184 0001919  41.0811 232.5653 15.08857870  1307,6917.826,95.436,541.018,538.363,0.0
52866.0,STARLINK-4272,PAYLOAD,2022-10-03 22:00:00,15.08869053,0.000174,53.2166,248.0209,45.3748,239.8884,-0.0016863,-0.00027047,0.0,0 STARLINK-4272,1 52866U 22062AN  22276.91667824 -.00027047  00000-0 -16863-2 0  9999,2 52866  53.2166 248.0209 0001740  45.3748 239.8884 15.08869053  1301,6917.792,95.436,540.86,538.453,0.0
52866.0,STARLINK-4272,PAYLOAD,2022-10-04 14:00:01,15.08857291,0.0001857,53.2166,245.0291,40.3416,268.129,-0.003414,-0.0005424,0.0,0 STARLINK-4272,1 52866U 22062AN  22277.58334491 -.00054240  00000-0 -34140-2 0  9997,2 52866  53.2166 245.0291 0001857  40.3416 268.1290 15.08857291  1302,6917.828,95.436,540.977,538.408,0.0
52866.0,STARLINK-4272,PAYLOAD,2022-10-04 22:00:00,15.08824298,0.0001843,53.2169,243.5319,48.4702,271.5908,-3.2255e-05,-8.01e-06,0.0,0 STARLINK-4272,1 52866U 22062AN  22277.91667824 -.00000801  00000-0 -32255-4 0  9994,2 52866  53.2169 243.5319 0001843  48.4702 271.5908 15.08824298  1306,6917.928000000001,95.439,541.068,538.518,0.0
52866.0,STARLINK-4272,PAYLOAD,2022-10-05 08:00:01,15.08811412,0.000202,53.2168,241.6635,42.9853,21.5498,0.00084215,0.0001313,0.0,0 STARLINK-4272,1 52866U 22062AN  22278.33334491  .00013130  00000-0  84215-3 0  9991,2 52866  53.2168 241.6635 0002020  42.9853  21.5498 15.08811412 17509,6917.968000000003,95.439,541.23,538.435,0.0
52866.0,STARLINK-4272,PAYLOAD,2022-10-05 14:00:01,15.0882257,0.0001898,53.2167,240.5399,44.9193,298.3532,-0.00077836,-0.00012649,0.0,0 STARLINK-4272,1 52866U 22062AN  22278.58335648 -.00012649  00000-0 -77836-3 0  9990,2 52866  53.2167 240.5399 0001898  44.9193 298.3532 15.08822570  1305,6917.934,95.439,541.112,538.486,0.0
52866.0,STARLINK-4272,PAYLOAD,2022-10-05 22:00:00,15.08833868,0.0001825,53.217,239.0441,51.4929,303.2812,-0.001125,-0.00018145,0.0,0 STARLINK-4272,1 52866U 22062AN  22278.91667824 -.00018145  00000-0 -11250-2 0  9995,2 52866  53.2170 239.0441 0001825  51.4929 303.2812 15.08833868  1309,6917.899,95.438,541.0269999999998,538.502,0.0
52866.0,STARLINK-4272,PAYLOAD,2022-10-06 14:00:01,15.08853493,0.0001896,53.2168,236.0507,49.2699,328.6673,-0.0010613,-0.00017146,0.0,0 STARLINK-4272,1 52866U 22062AN  22279.58334491 -.00017146  00000-0 -10613-2 0  9992,2 52866  53.2168 236.0507 0001896  49.2699 328.6673 15.08853493  1305,6917.839,95.437,541.016,538.393,0.0
52866.0,STARLINK-4272,PAYLOAD,2022-10-06 22:42:55,15.08850426,0.0001768,53.2171,234.4205,53.273,138.1801,-4.921300000000001e-05,-1.072e-05,0.0,0 STARLINK-4272,1 52866U 22062AN  22279.94646991 -.00001072  00000-0 -49213-4 0  9994,2 52866  53.2171 234.4205 0001768  53.2730 138.1801 15.08850426  1305,6917.849,95.437,540.937,538.49,0.0
52866.0,STARLINK-4272,PAYLOAD,2022-10-07 00:00:00,15.08852999,0.0001774999999999,53.217,234.1804,51.7484,70.6938,-0.00054236,-8.913e-05,0.0,0 STARLINK-4272,1 52866U 22062AN  22280.00001157 -.00008913  00000-0 -54236-3 0  9993,2 52866  53.2170 234.1804 0001775  51.7484  70.6938 15.08852999 17757,6917.840999999999,95.437,540.934,538.4780000000002,0.0
52866.0,STARLINK-4272,PAYLOAD,2022-10-07 14:00:01,15.08835867,0.0001598,53.2168,231.5614,46.3863,6.3855,-0.0017075,-0.00027357,0.0,0 STARLINK-4272,1 52866U 22062AN  22280.58334491 -.00027357  00000-0 -17075-2 0  9998,2 52866  53.2168 231.5614 0001598  46.3863   6.3855 15.08835867  1301,6917.893,95.438,540.864,538.653,0.0
52866.0,STARLINK-4272,PAYLOAD,2022-10-07 22:00:00,15.08849239,0.0001561,53.2169,230.065,50.53100000000001,13.8121,-0.0017489,-0.00028021,0.0,0 STARLINK-4272,1 52866U 22062AN  22280.91667824 -.00028021  00000-0 -17489-2 0  9992,2 52866  53.2169 230.0650 0001561  50.5310  13.8121 15.08849239  1307,6917.852,95.437,540.797,538.637,0.0
52866.0,STARLINK-4272,PAYLOAD,2022-10-08 06:00:00,15.08813517,0.0001735,53.2169,228.5702,45.4404,30.4987,0.0015019999999999,0.0002368,0.0,0 STARLINK-4272,1 52866U 22062AN  22281.25001157  .00023680  00000-0  15020-2 0  9994,2 52866  53.2169 228.5702 0001735  45.4404  30.4987 15.08813517 17949,6917.9609999999975,95.439,541.0269999999998,538.626,0.0
52866.0,STARLINK-4272,PAYLOAD,2022-10-08 14:00:01,15.08817536,0.000154,53.2168,227.0724,48.5144,39.0046,0.00051467,7.907e-05,0.0,0 STARLINK-4272,1 52866U 22062AN  22281.58334491  .00007907  00000-0  51467-3 0  9990,2 52866  53.2168 227.0724 0001540  48.5144  39.0046 15.08817536  1304,6917.949000000001,95.439,540.879,538.749,0.0
52866.0,STARLINK-4272,PAYLOAD,2022-10-08 22:00:00,15.08854889,0.0001509,53.2169,225.576,50.8249,48.2581,-0.00090187,-0.00014618,0.0,0 STARLINK-4272,1 52866U 22062AN  22281.91667824 -.00014618  00000-0 -90187-3 0  9997,2 52866  53.2169 225.5760 0001509  50.8249  48.2581 15.08854889  1303,6917.835,95.437,540.744,538.656,0.0
52866.0,STARLINK-4272,PAYLOAD,2022-10-09 06:00:00,15.08819969,0.0001636999999999,53.217,224.0812,43.3129,67.3867,0.0026226,0.00041675,0.0,0 STARLINK-4272,1 52866U 22062AN  22282.25001157  .00041675  00000-0  26226-2 0  9999,2 52866  53.2170 224.0812 0001637  43.3129  67.3867 15.08819969 18096,6917.941999999999,95.439,540.939,538.674,0.0
52866.0,STARLINK-4272,PAYLOAD,2022-10-09 14:00:01,15.08883559,0.0001515,53.2173,222.5879,42.769,79.5191,-0.0085406,-0.00133856,0.0,0 STARLINK-4272,1 52866U 22062AN  22282.58334491 -.00133856  00000-0 -85406-2 0  9995,2 52866  53.2173 222.5879 0001515  42.7690  79.5191 15.08883559  1303,6917.746999999999,95.435,540.66,538.564,0.0
52866.0,STARLINK-4272,PAYLOAD,2022-10-09 22:00:00,15.08817918,0.0001496999999999,53.2173,221.0938,45.0552,88.8108,0.0019356999999999,0.00030634,0.0,0 STARLINK-4272,1 52866U 22062AN  22282.91667824  .00030634  00000-0  19357-2 0  9991,2 52866  53.2173 221.0938 0001497  45.0552  88.8108 15.08817918 18209,6917.948,95.439,540.849,538.7769999999998,0.0
52866.0,STARLINK-4272,PAYLOAD,2022-10-10 00:00:00,15.08837241,0.00015,53.2174,220.7212,42.7578,183.9961,-1.0615e-05,-4.57e-06,0.0,0 STARLINK-4272,1 52866U 22062AN  22283.00001157 -.00000457  00000-0 -10615-4 0  9995,2 52866  53.2174 220.7212 0001500  42.7578 183.9961 15.08837241  1306,6917.889,95.438,540.7919999999998,538.716,0.0
52866.0,STARLINK-4272,PAYLOAD,2022-10-10 14:00:01,15.08836414,0.0001431999999999,53.2175,218.1023,42.808,114.2332,4.0185e-05,3.52e-06,0.0,0 STARLINK-4272,1 52866U 22062AN  22283.58334491  .00000352  00000-0  40185-4 0  9995,2 52866  53.2175 218.1023 0001432  42.8080 114.2332 15.08836414  1301,6917.891,95.438,540.747,538.766,0.0
52866.0,STARLINK-4272,PAYLOAD,2022-10-10 22:00:01,15.0889374,0.0001489,53.2175,216.6014,53.597,115.1479,-0.011456,-0.00178391,0.0,0 STARLINK-4272,1 52866U 22062AN  22283.91668981 -.00178391  00000-0 -11456-1 0  9993,2 52866  53.2175 216.6014 0001489  53.5970 115.1479 15.08893740  1300,6917.715999999999,95.434,540.611,538.5509999999998,0.0
52866.0,STARLINK-4272,PAYLOAD,2022-10-11 06:00:00,15.08779634,0.0001685,53.2173,215.1047,45.1826,135.0717,0.0052438,0.00084024,0.0,0 STARLINK-4272,1 52866U 22062AN  22284.25001157  .00084024  00000-0  52438-2 0  9990,2 52866  53.2173 215.1047 0001685  45.1826 135.0717 15.08779634 18403,6918.065,95.441,541.096,538.764,0.0
52866.0,STARLINK-4272,PAYLOAD,2022-10-11 14:00:01,15.08828761,0.0001488,53.2177,213.612,50.9302,140.8923,0.00080404,0.00012528,0.0,0 STARLINK-4272,1 52866U 22062AN  22284.58334491  .00012528  00000-0  80404-3 0  9991,2 52866  53.2177 213.6120 0001488  50.9302 140.8923 15.08828761  1306,6917.915,95.438,540.809,538.75,0.0
52866.0,STARLINK-4272,PAYLOAD,2022-10-11 22:00:00,15.08836583,0.0001484,53.2176,212.117,52.8034,150.6065,1.4053e-05,-6.4e-07,0.0,0 STARLINK-4272,1 52866U 22062AN  22284.91667824 -.00000064  00000-0  14053-4 0  9998,2 52866  53.2176 212.1170 0001484  52.8034 150.6065 15.08836583  1300,6917.891,95.438,540.7819999999998,538.729,0.0
